{"type": "FeatureCollection", "features": [ {"type": "Feature", "properties": {"norad_id": 41556, "name": "ZIYUAN 3-02 (ZY 3-02)", "group": "resource", "lat": -29.564046014312247, "lon": 78.88700334737891, "alt_km": 513.7826233096066, "timestamp": "2025-12-26T17:24:54.375199+00:00", "meta": {"OBJECT_NAME": "ZIYUAN 3-02 (ZY 3-02)", "OBJECT_ID": "2016-033A", "EPOCH": "2025-12-26T06:29:44.253312", "MEAN_MOTION": 15.21247096, "ECCENTRICITY": 0.00115361, "INCLINATION": 97.4023, "RA_OF_ASC_NODE": 74.2105, "ARG_OF_PERICENTER": 195.7365, "MEAN_ANOMALY": 164.3514, "EPHEMERIS_TYPE": 0, "CLASSIFICATION_TYPE": "U", "NORAD_CAT_ID": 41556, "ELEMENT_SET_NO": 999, "REV_AT_EPOCH": 53169, "BSTAR": 0.00032868399, "MEAN_MOTION_DOT": 7.286e-05, "MEAN_MOTION_DDOT": 0}, "tle": {"line1": "1 41556U 16033A   25360.27065108  .00007286  00000+0  32868-3 0  9991", "line2": "2 41556  97.4023  74.2105 0011536 195.7365 164.3514 15.21247096531694"}}, "geometry": {"type": "Point", "coordinates": [78.88700334737891, -29.564046014312247]}}, {"type": "Feature", "properties": {"norad_id": 41599, "name": "CARTOSAT-2C", "group": "resource", "lat": 8.60027669967915, "lon": -121.03201922068368, "alt_km": 516.495797996382, "timestamp": "2025-12-26T17:24:54.375209+00:00", "meta": {"OBJECT_NAME": "CARTOSAT-2C", "OBJECT_ID": "2016-040A", "EPOCH": "2025-12-26T07:10:47.529408", "MEAN_MOTION": 15.19241009, "ECCENTRICITY": 0.0010584, "INCLINATION": 97.4746, "RA_OF_ASC_NODE": 57.4082, "ARG_OF_PERICENTER": 19.9395, "MEAN_ANOMALY": 340.2251, "EPHEMERIS_TYPE": 0, "CLASSIFICATION_TYPE": "U", "NORAD_CAT_ID": 41599, "ELEMENT_SET_NO": 999, "REV_AT_EPOCH": 52746, "BSTAR": 0.00026415539, "MEAN_MOTION_DOT": 5.505e-05, "MEAN_MOTION_DDOT": 0}, "tle": {"line1": "1 41599U 16040A   25360.29916122  .00005505  00000+0  26416-3 0  9993", "line2": "2 41599  97.4746  57.4082 0010584  19.9395 340.2251 15.19241009527460"}}, "geometry": {"type": "Point", "coordinates": [-121.03201922068368, 8.60027669967915]}}, {"type": "Feature", "properties": {"norad_id": 41601, "name": "SKYSAT-C1", "group": "resource", "lat": -4.5825111559603195, "lon": -143.61189336000336, "alt_km": 471.3820906106748, "timestamp": "2025-12-26T17:24:54.375220+00:00", "meta": {"OBJECT_NAME": "SKYSAT-C1", "OBJECT_ID": "2016-040C", "EPOCH": "2025-12-26T00:56:42.616032", "MEAN_MOTION": 15.32828423, "ECCENTRICITY": 8.319e-05, "INCLINATION": 96.9807, "RA_OF_ASC_NODE": 36.3031, "ARG_OF_PERICENTER": 314.1232, "MEAN_ANOMALY": 45.9943, "EPHEMERIS_TYPE": 0, "CLASSIFICATION_TYPE": "U", "NORAD_CAT_ID": 41601, "ELEMENT_SET_NO": 999, "REV_AT_EPOCH": 53131, "BSTAR": 0.00029756447, "MEAN_MOTION_DOT": 9.364e-05, "MEAN_MOTION_DDOT": 0}, "tle": {"line1": "1 41601U 16040C   25360.03938213  .00009364  00000+0  29756-3 0  9991", "line2": "2 41601  96.9807  36.3031 0000831 314.1232  45.9943 15.32828423531312"}}, "geometry": {"type": "Point", "coordinates": [-143.61189336000336, -4.5825111559603195]}}, {"type": "Feature", "properties": {"norad_id": 41603, "name": "LAPAN-A3", "group": "resource", "lat": -82.31900646680765, "lon": 66.200434958837, "alt_km": 472.30334057938944, "timestamp": "2025-12-26T17:24:54.375230+00:00", "meta": {"OBJECT_NAME": "LAPAN-A3", "OBJECT_ID": "2016-040E", "EPOCH": "2025-12-26T06:49:09.478272", "MEAN_MOTION": 15.31663168, "ECCENTRICITY": 0.00086422, "INCLINATION": 97.1437, "RA_OF_ASC_NODE": 357.3484, "ARG_OF_PERICENTER": 277.3175, "MEAN_ANOMALY": 82.7085, "EPHEMERIS_TYPE": 0, "CLASSIFICATION_TYPE": "U", "NORAD_CAT_ID": 41603, "ELEMENT_SET_NO": 999, "REV_AT_EPOCH": 52833, "BSTAR": 0.00015247468, "MEAN_MOTION_DOT": 4.592e-05, "MEAN_MOTION_DDOT": 0}, "tle": {"line1": "1 41603U 16040E   25360.28413748  .00004592  00000+0  15247-3 0  9999", "line2": "2 41603  97.1437 357.3484 0008642 277.3175  82.7085 15.31663168528334"}}, "geometry": {"type": "Point", "coordinates": [66.200434958837, -82.31900646680765]}}, {"type": "Feature", "properties": {"norad_id": 41604, "name": "BIROS", "group": "resource", "lat": -81.3762058934067, "lon": 87.64241762016577, "alt_km": 296.73544689976643, "timestamp": "2025-12-26T17:24:54.375241+00:00", "meta": {"OBJECT_NAME": "BIROS", "OBJECT_ID": "2016-040F", "EPOCH": "2025-12-26T01:12:43.306272", "MEAN_MOTION": 15.95194722, "ECCENTRICITY": 0.00039995, "INCLINATION": 97.0651, "RA_OF_ASC_NODE": 32.0679, "ARG_OF_PERICENTER": 121.8836, "MEAN_ANOMALY": 238.283, "EPHEMERIS_TYPE": 0, "CLASSIFICATION_TYPE": "U", "NORAD_CAT_ID": 41604, "ELEMENT_SET_NO": 999, "REV_AT_EPOCH": 53084, "BSTAR": 0.00059208615, "MEAN_MOTION_DOT": 0.00229911, "MEAN_MOTION_DDOT": 2.2392825e-05}, "tle": {"line1": "1 41604U 16040F   25360.05050123  .00229911  22393-4  59209-3 0  9993", "line2": "2 41604  97.0651  32.0679 0003999 121.8836 238.2830 15.95194722530842"}}, "geometry": {"type": "Point", "coordinates": [87.64241762016577, -81.3762058934067]}}, {"type": "Feature", "properties": {"norad_id": 41727, "name": "GAOFEN-3", "group": "resource", "lat": -56.33910101040526, "lon": 173.27221189232947, "alt_km": 758.9974030732865, "timestamp": "2025-12-26T17:24:54.375252+00:00", "meta": {"OBJECT_NAME": "GAOFEN-3", "OBJECT_ID": "2016-049A", "EPOCH": "2025-12-26T07:59:35.436192", "MEAN_MOTION": 14.42217632, "ECCENTRICITY": 0.00010829, "INCLINATION": 98.4039, "RA_OF_ASC_NODE": 5.7118, "ARG_OF_PERICENTER": 54.6678, "MEAN_ANOMALY": 305.4613, "EPHEMERIS_TYPE": 0, "CLASSIFICATION_TYPE": "U", "NORAD_CAT_ID": 41727, "ELEMENT_SET_NO": 999, "REV_AT_EPOCH": 49373, "BSTAR": 0.00010944611, "MEAN_MOTION_DOT": 3.17e-06, "MEAN_MOTION_DDOT": 0}, "tle": {"line1": "1 41727U 16049A   25360.33304903  .00000317  00000+0  10945-3 0  9994", "line2": "2 41727  98.4039   5.7118 0001082  54.6678 305.4613 14.42217632493735"}}, "geometry": {"type": "Point", "coordinates": [173.27221189232947, -56.33910101040526]}}, {"type": "Feature", "properties": {"norad_id": 41771, "name": "SKYSAT-C4", "group": "resource", "lat": -67.89371872230831, "lon": -172.2063225913104, "alt_km": 446.7273497852775, "timestamp": "2025-12-26T17:24:54.375262+00:00", "meta": {"OBJECT_NAME": "SKYSAT-C4", "OBJECT_ID": "2016-058B", "EPOCH": "2025-12-26T00:46:17.167296", "MEAN_MOTION": 15.42627652, "ECCENTRICITY": 0.000262, "INCLINATION": 96.9364, "RA_OF_ASC_NODE": 24.5747, "ARG_OF_PERICENTER": 122.1279, "MEAN_ANOMALY": 238.0225, "EPHEMERIS_TYPE": 0, "CLASSIFICATION_TYPE": "U", "NORAD_CAT_ID": 41771, "ELEMENT_SET_NO": 999, "REV_AT_EPOCH": 51872, "BSTAR": 0.00035000874, "MEAN_MOTION_DOT": 0.00015166, "MEAN_MOTION_DDOT": 0}, "tle": {"line1": "1 41771U 16058B   25360.03214314  .00015166  00000+0  35001-3 0  9994", "line2": "2 41771  96.9364  24.5747 0002620 122.1279 238.0225 15.42627652518727"}}, "geometry": {"type": "Point", "coordinates": [-172.2063225913104, -67.89371872230831]}}, {"type": "Feature", "properties": {"norad_id": 41772, "name": "SKYSAT-C5", "group": "resource", "lat": 74.84590096742373, "lon": -108.81717206484403, "alt_km": 457.82160208627283, "timestamp": "2025-12-26T17:24:54.375273+00:00", "meta": {"OBJECT_NAME": "SKYSAT-C5", "OBJECT_ID": "2016-058C", "EPOCH": "2025-12-26T02:52:36.392160", "MEAN_MOTION": 15.3411733, "ECCENTRICITY": 0.00040435, "INCLINATION": 97.0738, "RA_OF_ASC_NODE": 43.3114, "ARG_OF_PERICENTER": 226.167, "MEAN_ANOMALY": 133.924, "EPHEMERIS_TYPE": 0, "CLASSIFICATION_TYPE": "U", "NORAD_CAT_ID": 41772, "ELEMENT_SET_NO": 999, "REV_AT_EPOCH": 51721, "BSTAR": 0.00028335025, "MEAN_MOTION_DOT": 9.284e-05, "MEAN_MOTION_DDOT": 0}, "tle": {"line1": "1 41772U 16058C   25360.11986565  .00009284  00000+0  28335-3 0  9994", "line2": "2 41772  97.0738  43.3114 0004043 226.1670 133.9240 15.34117330517214"}}, "geometry": {"type": "Point", "coordinates": [-108.81717206484403, 74.84590096742373]}}, {"type": "Feature", "properties": {"norad_id": 41773, "name": "SKYSAT-C2", "group": "resource", "lat": -76.7200124537136, "lon": 56.21092683578532, "alt_km": 459.9860888402545, "timestamp": "2025-12-26T17:24:54.375283+00:00", "meta": {"OBJECT_NAME": "SKYSAT-C2", "OBJECT_ID": "2016-058D", "EPOCH": "2025-12-26T00:34:32.744640", "MEAN_MOTION": 15.37567448, "ECCENTRICITY": 0.00026524, "INCLINATION": 97.0353, "RA_OF_ASC_NODE": 23.9884, "ARG_OF_PERICENTER": 353.6257, "MEAN_ANOMALY": 6.4955, "EPHEMERIS_TYPE": 0, "CLASSIFICATION_TYPE": "U", "NORAD_CAT_ID": 41773, "ELEMENT_SET_NO": 999, "REV_AT_EPOCH": 51840, "BSTAR": 0.00032600272, "MEAN_MOTION_DOT": 0.00011946, "MEAN_MOTION_DDOT": 0}, "tle": {"line1": "1 41773U 16058D   25360.02399010  .00011946  00000+0  32600-3 0  9996", "line2": "2 41773  97.0353  23.9884 0002652 353.6257   6.4955 15.37567448518408"}}, "geometry": {"type": "Point", "coordinates": [56.21092683578532, -76.7200124537136]}}, {"type": "Feature", "properties": {"norad_id": 41774, "name": "SKYSAT-C3", "group": "resource", "lat": 66.36230982542556, "lon": -130.04576613824216, "alt_km": 423.81753533532446, "timestamp": "2025-12-26T17:24:54.375294+00:00", "meta": {"OBJECT_NAME": "SKYSAT-C3", "OBJECT_ID": "2016-058E", "EPOCH": "2025-12-26T01:23:02.725152", "MEAN_MOTION": 15.44872099, "ECCENTRICITY": 0.00021358, "INCLINATION": 96.9285, "RA_OF_ASC_NODE": 33.1854, "ARG_OF_PERICENTER": 105.3287, "MEAN_ANOMALY": 254.82, "EPHEMERIS_TYPE": 0, "CLASSIFICATION_TYPE": "U", "NORAD_CAT_ID": 41774, "ELEMENT_SET_NO": 999, "REV_AT_EPOCH": 51931, "BSTAR": 0.00040459757, "MEAN_MOTION_DOT": 0.00018932, "MEAN_MOTION_DDOT": 0}, "tle": {"line1": "1 41774U 16058E   25360.05767043  .00018932  00000+0  40460-3 0  9990", "line2": "2 41774  96.9285  33.1854 0002135 105.3287 254.8200 15.44872099519314"}}, "geometry": {"type": "Point", "coordinates": [-130.04576613824216, 66.36230982542556]}}]}